{"type": "FeatureCollection", "features": [ {"type": "Feature", "properties": {"norad_id": 40701, "name": "GAOFEN-8", "group": "resource", "lat": -4.098178339001211, "lon": 179.58738586986874, "alt_km": 453.39980651211135, "timestamp": "2025-12-26T05:31:12.157127+00:00", "meta": {"OBJECT_NAME": "GAOFEN-8", "OBJECT_ID": "2015-030A", "EPOCH": "2025-12-25T23:17:46.487616", "MEAN_MOTION": 15.39026705, "ECCENTRICITY": 0.00114721, "INCLINATION": 97.6903, "RA_OF_ASC_NODE": 178.7606, "ARG_OF_PERICENTER": 92.8832, "MEAN_ANOMALY": 267.3726, "EPHEMERIS_TYPE": 0, "CLASSIFICATION_TYPE": "U", "NORAD_CAT_ID": 40701, "ELEMENT_SET_NO": 999, "REV_AT_EPOCH": 58474, "BSTAR": 0.00030288987, "MEAN_MOTION_DOT": 0.00011647, "MEAN_MOTION_DDOT": 0}, "tle": {"line1": "1 40701U 15030A   25359.97067694  .00011647  00000+0  30289-3 0  9996", "line2": "2 40701  97.6903 178.7606 0011472  92.8832 267.3726 15.39026705584749"}}, "geometry": {"type": "Point", "coordinates": [179.58738586986874, -4.098178339001211]}}, {"type": "Feature", "properties": {"norad_id": 40718, "name": "CARBONITE 1 (CBNT-1)", "group": "resource", "lat": 82.13167674293031, "lon": 76.9358738966282, "alt_km": 605.4964398220391, "timestamp": "2025-12-26T05:31:12.157138+00:00", "meta": {"OBJECT_NAME": "CARBONITE 1 (CBNT-1)", "OBJECT_ID": "2015-032D", "EPOCH": "2025-12-25T22:37:44.839776", "MEAN_MOTION": 14.82810422, "ECCENTRICITY": 0.00154027, "INCLINATION": 97.6406, "RA_OF_ASC_NODE": 180.4066, "ARG_OF_PERICENTER": 138.7861, "MEAN_ANOMALY": 221.452, "EPHEMERIS_TYPE": 0, "CLASSIFICATION_TYPE": "U", "NORAD_CAT_ID": 40718, "ELEMENT_SET_NO": 999, "REV_AT_EPOCH": 56366, "BSTAR": 0.00067441611, "MEAN_MOTION_DOT": 5.419e-05, "MEAN_MOTION_DDOT": 0}, "tle": {"line1": "1 40718U 15032D   25359.94288009  .00005419  00000+0  67442-3 0  9999", "line2": "2 40718  97.6406 180.4066 0015402 138.7861 221.4520 14.82810422563669"}}, "geometry": {"type": "Point", "coordinates": [76.9358738966282, 82.13167674293031]}}, {"type": "Feature", "properties": {"norad_id": 40878, "name": "YAOGAN-27", "group": "resource", "lat": -12.903110194701314, "lon": -8.419475933492262, "alt_km": 1204.428190560735, "timestamp": "2025-12-26T05:31:12.157148+00:00", "meta": {"OBJECT_NAME": "YAOGAN-27", "OBJECT_ID": "2015-040A", "EPOCH": "2025-12-26T00:06:46.704672", "MEAN_MOTION": 13.16061396, "ECCENTRICITY": 0.00075893, "INCLINATION": 100.1024, "RA_OF_ASC_NODE": 349.0248, "ARG_OF_PERICENTER": 253.7313, "MEAN_ANOMALY": 106.2967, "EPHEMERIS_TYPE": 0, "CLASSIFICATION_TYPE": "U", "NORAD_CAT_ID": 40878, "ELEMENT_SET_NO": 999, "REV_AT_EPOCH": 49488, "BSTAR": -0.0003004632, "MEAN_MOTION_DOT": -1.56e-06, "MEAN_MOTION_DDOT": 0}, "tle": {"line1": "1 40878U 15040A   25360.00470723 -.00000156  00000+0 -30046-3 0  9995", "line2": "2 40878 100.1024 349.0248 0007589 253.7313 106.2967 13.16061396494880"}}, "geometry": {"type": "Point", "coordinates": [-8.419475933492262, -12.903110194701314]}}, {"type": "Feature", "properties": {"norad_id": 40894, "name": "GAOFEN-9 01", "group": "resource", "lat": -3.569801909435907, "lon": 39.08255182973552, "alt_km": 606.0561978312317, "timestamp": "2025-12-26T05:31:12.157159+00:00", "meta": {"OBJECT_NAME": "GAOFEN-9 01", "OBJECT_ID": "2015-047A", "EPOCH": "2025-12-25T23:03:23.235840", "MEAN_MOTION": 14.82453662, "ECCENTRICITY": 0.00273109, "INCLINATION": 97.6526, "RA_OF_ASC_NODE": 38.3443, "ARG_OF_PERICENTER": 351.4414, "MEAN_ANOMALY": 8.6331, "EPHEMERIS_TYPE": 0, "CLASSIFICATION_TYPE": "U", "NORAD_CAT_ID": 40894, "ELEMENT_SET_NO": 999, "REV_AT_EPOCH": 55452, "BSTAR": 0.00014621395, "MEAN_MOTION_DOT": 1.129e-05, "MEAN_MOTION_DDOT": 0}, "tle": {"line1": "1 40894U 15047A   25359.96068560  .00001129  00000+0  14621-3 0  9995", "line2": "2 40894  97.6526  38.3443 0027310 351.4414   8.6331 14.82453662554525"}}, "geometry": {"type": "Point", "coordinates": [39.08255182973552, -3.569801909435907]}}, {"type": "Feature", "properties": {"norad_id": 41026, "name": "YAOGAN-28", "group": "resource", "lat": 24.762531856970984, "lon": 134.26217985179494, "alt_km": 486.8962000371739, "timestamp": "2025-12-26T05:31:12.157169+00:00", "meta": {"OBJECT_NAME": "YAOGAN-28", "OBJECT_ID": "2015-064A", "EPOCH": "2025-12-25T23:06:35.901792", "MEAN_MOTION": 15.24560535, "ECCENTRICITY": 0.0012656, "INCLINATION": 97.2816, "RA_OF_ASC_NODE": 137.3839, "ARG_OF_PERICENTER": 84.141, "MEAN_ANOMALY": 276.1271, "EPHEMERIS_TYPE": 0, "CLASSIFICATION_TYPE": "U", "NORAD_CAT_ID": 41026, "ELEMENT_SET_NO": 999, "REV_AT_EPOCH": 56426, "BSTAR": 0.00031596641, "MEAN_MOTION_DOT": 7.73e-05, "MEAN_MOTION_DDOT": 0}, "tle": {"line1": "1 41026U 15064A   25359.96291553  .00007730  00000+0  31597-3 0  9997", "line2": "2 41026  97.2816 137.3839 0012656  84.1410 276.1271 15.24560535564265"}}, "geometry": {"type": "Point", "coordinates": [134.26217985179494, 24.762531856970984]}}, {"type": "Feature", "properties": {"norad_id": 41038, "name": "YAOGAN-29", "group": "resource", "lat": -81.30198667155956, "lon": 136.27060152052005, "alt_km": 627.7312789794642, "timestamp": "2025-12-26T05:31:12.157179+00:00", "meta": {"OBJECT_NAME": "YAOGAN-29", "OBJECT_ID": "2015-069A", "EPOCH": "2025-12-25T23:27:46.533024", "MEAN_MOTION": 14.82898064, "ECCENTRICITY": 9.501e-05, "INCLINATION": 98.0207, "RA_OF_ASC_NODE": 23.1906, "ARG_OF_PERICENTER": 160.8024, "MEAN_ANOMALY": 199.3225, "EPHEMERIS_TYPE": 0, "CLASSIFICATION_TYPE": "U", "NORAD_CAT_ID": 41038, "ELEMENT_SET_NO": 999, "REV_AT_EPOCH": 54495, "BSTAR": 0.00010692642, "MEAN_MOTION_DOT": 8.13e-06, "MEAN_MOTION_DDOT": 0}, "tle": {"line1": "1 41038U 15069A   25359.97762191  .00000813  00000+0  10693-3 0  9996", "line2": "2 41038  98.0207  23.1906 0000950 160.8024 199.3225 14.82898064544958"}}, "geometry": {"type": "Point", "coordinates": [136.27060152052005, -81.30198667155956]}}, {"type": "Feature", "properties": {"norad_id": 41167, "name": "KENT RIDGE 1", "group": "resource", "lat": 14.286378008822215, "lon": -141.21227692024928, "alt_km": 500.66995028166275, "timestamp": "2025-12-26T05:31:12.157189+00:00", "meta": {"OBJECT_NAME": "KENT RIDGE 1", "OBJECT_ID": "2015-077B", "EPOCH": "2025-12-25T16:28:00.882048", "MEAN_MOTION": 15.21731933, "ECCENTRICITY": 0.00085371, "INCLINATION": 14.9792, "RA_OF_ASC_NODE": 115.0675, "ARG_OF_PERICENTER": 313.4673, "MEAN_ANOMALY": 46.4939, "EPHEMERIS_TYPE": 0, "CLASSIFICATION_TYPE": "U", "NORAD_CAT_ID": 41167, "ELEMENT_SET_NO": 999, "REV_AT_EPOCH": 55461, "BSTAR": 0.00017413045, "MEAN_MOTION_DOT": 4.822e-05, "MEAN_MOTION_DDOT": 0}, "tle": {"line1": "1 41167U 15077B   25359.68612132  .00004822  00000+0  17413-3 0  9996", "line2": "2 41167  14.9792 115.0675 0008537 313.4673  46.4939 15.21731933554619"}}, "geometry": {"type": "Point", "coordinates": [-141.21227692024928, 14.286378008822215]}}, {"type": "Feature", "properties": {"norad_id": 41194, "name": "GAOFEN-4", "group": "resource", "lat": -0.09327240816766402, "lon": -76.49325218649163, "alt_km": 35790.39370707969, "timestamp": "2025-12-26T05:31:12.157201+00:00", "meta": {"OBJECT_NAME": "GAOFEN-4", "OBJECT_ID": "2015-083A", "EPOCH": "2025-12-25T18:48:31.585824", "MEAN_MOTION": 1.00269663, "ECCENTRICITY": 0.00028192, "INCLINATION": 0.2017, "RA_OF_ASC_NODE": 81.9193, "ARG_OF_PERICENTER": 93.7327, "MEAN_ANOMALY": 306.7256, "EPHEMERIS_TYPE": 0, "CLASSIFICATION_TYPE": "U", "NORAD_CAT_ID": 41194, "ELEMENT_SET_NO": 999, "REV_AT_EPOCH": 3679, "BSTAR": 0, "MEAN_MOTION_DOT": -3.13e-06, "MEAN_MOTION_DDOT": 0}, "tle": {"line1": "1 41194U 15083A   25359.78369891 -.00000313  00000+0  00000+0 0  9997", "line2": "2 41194   0.2017  81.9193 0002819  93.7327 306.7256  1.00269663 36790"}}, "geometry": {"type": "Point", "coordinates": [-76.49325218649163, -0.09327240816766402]}}, {"type": "Feature", "properties": {"norad_id": 41240, "name": "JASON-3", "group": "resource", "lat": -17.166888422839975, "lon": -42.642753420043746, "alt_km": 1313.1577604340891, "timestamp": "2025-12-26T05:31:12.157212+00:00", "meta": {"OBJECT_NAME": "JASON-3", "OBJECT_ID": "2016-002A", "EPOCH": "2025-12-25T22:53:54.177792", "MEAN_MOTION": 12.87627113, "ECCENTRICITY": 0.00073166, "INCLINATION": 66.0406, "RA_OF_ASC_NODE": 130.0424, "ARG_OF_PERICENTER": 271.6095, "MEAN_ANOMALY": 88.4086, "EPHEMERIS_TYPE": 0, "CLASSIFICATION_TYPE": "U", "NORAD_CAT_ID": 41240, "ELEMENT_SET_NO": 999, "REV_AT_EPOCH": 46494, "BSTAR": 0.00015300658, "MEAN_MOTION_DOT": -2.4e-07, "MEAN_MOTION_DDOT": 0}, "tle": {"line1": "1 41240U 16002A   25359.95409928 -.00000024  00000+0  15301-3 0  9999", "line2": "2 41240  66.0406 130.0424 0007316 271.6095  88.4086 12.87627113464945"}}, "geometry": {"type": "Point", "coordinates": [-42.642753420043746, -17.166888422839975]}}, {"type": "Feature", "properties": {"norad_id": 41335, "name": "SENTINEL-3A", "group": "resource", "lat": 55.926013591925766, "lon": -101.97114290180484, "alt_km": 796.7221711468137, "timestamp": "2025-12-26T05:31:12.157223+00:00", "meta": {"OBJECT_NAME": "SENTINEL-3A", "OBJECT_ID": "2016-011A", "EPOCH": "2025-12-25T22:12:46.725120", "MEAN_MOTION": 14.26735659, "ECCENTRICITY": 8.85e-05, "INCLINATION": 98.6297, "RA_OF_ASC_NODE": 64.754, "ARG_OF_PERICENTER": 97.5212, "MEAN_ANOMALY": 262.6069, "EPHEMERIS_TYPE": 0, "CLASSIFICATION_TYPE": "U", "NORAD_CAT_ID": 41335, "ELEMENT_SET_NO": 999, "REV_AT_EPOCH": 51335, "BSTAR": 7.3732955e-05, "MEAN_MOTION_DOT": 1.35e-06, "MEAN_MOTION_DDOT": 0}, "tle": {"line1": "1 41335U 16011A   25359.92554080  .00000135  00000+0  73733-4 0  9997", "line2": "2 41335  98.6297  64.7540 0000885  97.5212 262.6069 14.26735659513358"}}, "geometry": {"type": "Point", "coordinates": [-101.97114290180484, 55.926013591925766]}}]}